NORAD_CAT_ID,OBJECT_NAME,OBJECT_TYPE,EPOCH,MEAN_MOTION,ECCENTRICITY,INCLINATION,RA_OF_ASC_NODE,ARG_OF_PERICENTER,MEAN_ANOMALY,BSTAR,MEAN_MOTION_DOT,MEAN_MOTION_DDOT,TLE_LINE0,TLE_LINE1,TLE_LINE2,SEMIMAJOR_AXIS,PERIOD,APOGEE,PERIGEE,DECAYED
53743.0,STARLINK-4645,PAYLOAD,2024-08-03 14:06:57,15.08847453,0.0001222,53.2148,1.8508,93.9367,266.1765,0.00020492,2.976e-05,0.0,0 STARLINK-4645,1 53743U 22107AV  24216.58816589  .00002976  00000-0  20492-3 0  9993,2 53743  53.2148   1.8508 0001222  93.9367 266.1765 15.08847453106569,6917.858,95.437,540.568,538.877,0.0
53743.0,STARLINK-4645,PAYLOAD,2024-08-03 18:53:06,15.08859298,0.0001287,53.2166,0.9557,105.3858,254.7277,0.00040402,6.151e-05,0.0,0 STARLINK-4645,1 53743U 22107AV  24216.78687802  .00006151  00000-0  40402-3 0  9991,2 53743  53.2166   0.9557 0001287 105.3858 254.7277 15.08859298105815,6917.821,95.436,540.577,538.796,0.0
53743.0,STARLINK-4645,PAYLOAD,2024-08-04 02:50:03,15.08837701,0.0002206,53.2172,359.4704,77.9446,282.1794,7.2702e-05,8.69e-06,0.0,0 STARLINK-4645,1 53743U 22107AV  24217.11809141  .00000869  00000-0  72702-4 0  9990,2 53743  53.2172 359.4704 0002206  77.9446 282.1794 15.08837701105866,6917.887,95.438,541.279,538.226,0.0
53743.0,STARLINK-4645,PAYLOAD,2024-08-04 15:33:08,15.08840442,9.92e-05,53.2168,357.0919,83.7567,276.3539,8.0992e-05,1.001e-05,0.0,0 STARLINK-4645,1 53743U 22107AV  24217.64800936  .00001001  00000-0  80992-4 0  9990,2 53743  53.2168 357.0919 0000992  83.7567 276.3539 15.08840442106726,6917.879,95.438,540.43,539.058,0.0
53743.0,STARLINK-4645,PAYLOAD,2024-08-04 18:43:53,15.08863371,0.0001414,53.2172,356.498,81.0332,279.082,0.00061385,9.501e-05,0.0,0 STARLINK-4645,1 53743U 22107AV  24217.78048256  .00009501  00000-0  61385-3 0  9991,2 53743  53.2172 356.4980 0001414  81.0332 279.0820 15.08863371105967,6917.809,95.436,540.652,538.696,0.0
53743.0,STARLINK-4645,PAYLOAD,2024-08-05 02:40:49,15.08853582,0.0001296,53.2176,355.0103,90.4999,269.6141,0.00038612,5.865e-05,0.0,0 STARLINK-4645,1 53743U 22107AV  24218.11168332  .00005865  00000-0  38612-3 0  9993,2 53743  53.2176 355.0103 0001296  90.4999 269.6141 15.08853582106015,6917.839,95.437,540.6,538.807,0.0
53743.0,STARLINK-4645,PAYLOAD,2024-08-05 15:23:54,15.0884684,0.0001377,53.2172,352.6316,91.4133,268.7017,0.00024662,3.64e-05,0.0,0 STARLINK-4645,1 53743U 22107AV  24218.64160415  .00003640  00000-0  24662-3 0  9994,2 53743  53.2172 352.6316 0001377  91.4133 268.7017 15.08846840106090,6917.859,95.437,540.677,538.772,0.0
53743.0,STARLINK-4645,PAYLOAD,2024-08-06 12:03:55,15.08836472,0.0001828,53.2177,348.765,110.6009,249.5179,6.632e-06,-1.83e-06,0.0,0 STARLINK-4645,1 53743U 22107AV  24219.50272905 -.00000183  00000-0  66320-5 0  9997,2 53743  53.2177 348.7650 0001828 110.6009 249.5179 15.08836472106220,6917.891,95.438,541.021,538.492,0.0
53743.0,STARLINK-4645,PAYLOAD,2024-08-06 15:14:42,15.08831956,0.0001468,53.2177,348.1733,97.992,262.1239,-6.4526e-05,-1.315e-05,0.0,0 STARLINK-4645,1 53743U 22107AV  24219.63521136 -.00001315  00000-0 -64526-4 0  9998,2 53743  53.2177 348.1733 0001468  97.9920 262.1239 15.08831956107024,6917.905,95.438,540.786,538.754,0.0
53743.0,STARLINK-4645,PAYLOAD,2024-08-07 11:54:43,15.08848792,0.0001458,53.2176,344.3081,98.7722,261.3435,0.0004984,7.655e-05,0.0,0 STARLINK-4645,1 53743U 22107AV  24220.49633127  .00007655  00000-0  49840-3 0  9990,2 53743  53.2176 344.3081 0001458  98.7722 261.3435 15.08848792107154,6917.854,95.437,540.727,538.71,0.0
53743.0,STARLINK-4645,PAYLOAD,2024-08-08 13:20:52,15.08856153,0.0001349,53.2177,339.5526,94.1043,266.0103,0.00043453,6.637e-05,0.0,0 STARLINK-4645,1 53743U 22107AV  24221.55616717  .00006637  00000-0  43453-3 0  9997,2 53743  53.2177 339.5526 0001349  94.1043 266.0103 15.08856153107312,6917.831,95.437,540.629,538.763,0.0
53743.0,STARLINK-4645,PAYLOAD,2024-08-08 14:56:15,15.08859724,0.0001408,53.2178,339.2556,94.6065,265.5088,0.0005087,7.822e-05,0.0,0 STARLINK-4645,1 53743U 22107AV  24221.62240573  .00007822  00000-0  50870-3 0  9996,2 53743  53.2178 339.2556 0001408  94.6065 265.5088 15.08859724106545,6917.82,95.436,540.659,538.711,0.0
53743.0,STARLINK-4645,PAYLOAD,2024-08-09 00:28:34,15.08849152,0.0001394,53.2171,337.4703,93.5526,266.5626,0.00014406,2.006e-05,0.0,0 STARLINK-4645,1 53743U 22107AV  24222.01984654  .00002006  00000-0  14406-3 0  9999,2 53743  53.2171 337.4703 0001394  93.5526 266.5626 15.08849152106606,6917.852,95.437,540.682,538.753,0.0
53743.0,STARLINK-4645,PAYLOAD,2024-08-09 14:47:02,15.08844948,0.0001537,53.2183,334.7975,113.8479,246.2675,3.7097e-05,3.03e-06,0.0,0 STARLINK-4645,1 53743U 22107AV  24222.61600624  .00000303  00000-0  37097-4 0  9997,2 53743  53.2183 334.7975 0001537 113.8479 246.2675 15.08844948107475,6917.865,95.437,540.794,538.667,0.0
53743.0,STARLINK-4645,PAYLOAD,2024-08-09 16:22:25,15.08851327,0.0001406,53.2177,334.4959,106.3098,253.8049,0.00024037,3.541e-05,0.0,0 STARLINK-4645,1 53743U 22107AV  24222.68224449  .00003541  00000-0  24037-3 0  9997,2 53743  53.2177 334.4959 0001406 106.3098 253.8049 15.08851327107485,6917.846,95.437,540.683,538.738,0.0
53743.0,STARLINK-4645,PAYLOAD,2024-08-10 13:02:27,15.08834142,0.0001572,53.2183,330.63,99.0639,261.0531,0.00010908,1.448e-05,0.0,0 STARLINK-4645,1 53743U 22107AV  24223.54337618  .00001448  00000-0  10908-3 0  9992,2 53743  53.2183 330.6300 0001572  99.0639 261.0531 15.08834142106834,6917.898,95.438,540.851,538.676,0.0
53743.0,STARLINK-4645,PAYLOAD,2024-08-11 08:07:06,15.08824914,0.000158,53.2181,327.0606,87.1887,272.9286,-7.6436e-06,-4.1e-06,0.0,0 STARLINK-4645,1 53743U 22107AV  24224.33826551 -.00000410  00000-0 -76436-5 0  9999,2 53743  53.2181 327.0606 0001580  87.1887 272.9286 15.08824914106950,6917.927,95.439,540.885,538.698,0.0
53743.0,STARLINK-4645,PAYLOAD,2024-08-11 16:04:00,15.08858698,0.0001361,53.2174,325.5747,115.2017,244.9117,0.00053586,8.255e-05,0.0,0 STARLINK-4645,1 53743U 22107AV  24224.66944930  .00008255  00000-0  53586-3 0  9999,2 53743  53.2174 325.5747 0001361 115.2017 244.9117 15.08858698107001,6917.823,95.436,540.63,538.747,0.0
53743.0,STARLINK-4645,PAYLOAD,2024-08-12 00:00:56,15.08843661,0.0002396,53.2161,324.0852,96.4422,263.6843,0.00024641,3.636e-05,0.0,0 STARLINK-4645,1 53743U 22107AV  24225.00065714  .00003636  00000-0  24641-3 0  9990,2 53743  53.2161 324.0852 0002396  96.4422 263.6843 15.08843661107050,6917.869,95.437,541.392,538.077,0.0
53743.0,STARLINK-4645,PAYLOAD,2024-08-12 12:44:00,15.08859364,4.01e-05,53.2174,321.707,158.4103,201.6906,0.00031988,4.81e-05,0.0,0 STARLINK-4645,1 53743U 22107AV  24225.53056086  .00004810  00000-0  31988-3 0  9997,2 53743  53.2174 321.7070 0000401 158.4103 201.6906 15.08859364107138,6917.821,95.436,539.964,539.409,0.0
53743.0,STARLINK-4645,PAYLOAD,2024-08-12 15:54:46,15.08879011,0.0001638,53.2185,321.113,91.618,268.5,0.00063524,9.847e-05,0.0,0 STARLINK-4645,1 53743U 22107AV  24225.66303489  .00009847  00000-0  63524-3 0  9999,2 53743  53.2185 321.1130 0001638  91.6180 268.5000 15.08879011107157,6917.761,95.435,540.759,538.493,0.0
53743.0,STARLINK-4645,PAYLOAD,2024-08-12 23:51:44,15.08816494,0.0003441,53.2171,319.6262,87.5191,272.6195,-0.00032984,-5.532e-05,0.0,0 STARLINK-4645,1 53743U 22107AV  24225.99426777 -.00005532  00000-0 -32984-3 0  9996,2 53743  53.2171 319.6262 0003441  87.5191 272.6195 15.08816494107203,6917.952,95.439,542.198,537.437,0.0
53743.0,STARLINK-4645,PAYLOAD,2024-08-13 12:34:50,15.08807805,0.0002383,53.2135,317.2455,101.1953,258.9307,-0.00036003,-6.009e-05,0.0,0 STARLINK-4645,1 53743U 22107AV  24226.52419697 -.00006009  00000-0 -36003-3 0  9995,2 53743  53.2135 317.2455 0002383 101.1953 258.9307 15.08807805108067,6917.979,95.44,541.492,538.195,0.0
53743.0,STARLINK-4645,PAYLOAD,2024-08-13 14:10:13,15.0880612,0.0001728,53.2129,316.9494,109.3283,250.7896,-0.0005976,-9.778e-05,0.0,0 STARLINK-4645,1 53743U 22107AV  24226.59043750 -.00009778  00000-0 -59760-3 0  9996,2 53743  53.2129 316.9494 0001728 109.3283 250.7896 15.08806120108070,6917.984,95.44,541.044,538.654,0.0
53743.0,STARLINK-4645,PAYLOAD,2024-08-13 23:42:31,15.08823079,9.38e-05,53.2165,315.1634,154.2582,205.8457,-0.00012169,-2.223e-05,0.0,0 STARLINK-4645,1 53743U 22107AV  24226.98786982 -.00002223  00000-0 -12169-3 0  9990,2 53743  53.2165 315.1634 0000938 154.2582 205.8457 15.08823079107356,6917.932,95.439,540.446,539.148,0.0
53743.0,STARLINK-4645,PAYLOAD,2024-08-14 12:25:36,15.08848237,0.0001798,53.2165,312.7863,109.2394,250.8793,0.0002997,4.486e-05,0.0,0 STARLINK-4645,1 53743U 22107AV  24227.51778189  .00004486  00000-0  29970-3 0  9999,2 53743  53.2165 312.7863 0001798 109.2394 250.8793 15.08848237107434,6917.855,95.437,540.964,538.476,0.0
53743.0,STARLINK-4645,PAYLOAD,2024-08-14 17:11:45,15.08848288,0.0002277,53.2161,311.8952,98.3145,261.8106,0.00084682,0.00013218,0.0,0 STARLINK-4645,1 53743U 22107AV  24227.71650403  .00013218  00000-0  84682-3 0  9993,2 53743  53.2161 311.8952 0002277  98.3145 261.8106 15.08848288108240,6917.855,95.437,541.295,538.145,0.0
53743.0,STARLINK-4645,PAYLOAD,2024-08-15 12:16:24,15.08834075,0.0001269,53.2147,308.3286,116.8323,243.2799,0.00047161,7.225e-05,0.0,0 STARLINK-4645,1 53743U 22107AV  24228.51139390  .00007225  00000-0  47161-3 0  9991,2 53743  53.2147 308.3286 0001269 116.8323 243.2799 15.08834075108363,6917.898,95.438,540.641,538.886,0.0
53743.0,STARLINK-4645,PAYLOAD,2024-08-15 17:02:33,15.08842361,0.0001572,53.2151,307.4343,114.156,245.9597,0.00046498,7.12e-05,0.0,0 STARLINK-4645,1 53743U 22107AV  24228.71010958  .00007120  00000-0  46498-3 0  9997,2 53743  53.2151 307.4343 0001572 114.1560 245.9597 15.08842361107612,6917.873,95.437,540.826,538.651,0.0
53743.0,STARLINK-4645,PAYLOAD,2024-08-15 21:48:43,15.08834709,0.0001944,53.2158,306.5397,115.3913,244.7281,7.0904e-05,8.4e-06,0.0,0 STARLINK-4645,1 53743U 22107AV  24228.90883206  .00000840  00000-0  70904-4 0  9994,2 53743  53.2158 306.5397 0001944 115.3913 244.7281 15.08834709108420,6917.897,95.438,541.106,538.417,0.0
